STARLINK-2022           
1 47643U 21012Z   23210.94928489  .00010569  00000+0  72704-3 0  9994
2 47643  53.0549  13.1300 0001153  88.2504 271.8617 15.06417935135997
